STARLINK-5290           
1 54157U 22141A   26068.26345695  .00001597  00000+0  11846-3 0  9998
2 54157  53.2180  15.9856 0001363  99.2580 260.8566 15.08831092185658
LEMUR-2-MARHISYAM       
1 60536U 24149BW  26068.74036894  .00013075  00000+0  82973-3 0  9990
2 60536  97.6912 151.2662 0003578 107.3271 252.8349 15.09015520 85478
